ONEWEB-0645             
1 55809U 23029P   25007.14847310  .00000088  00000+0  18635-3 0  9996
2 55809  87.9162  49.5749 0001497  96.5814 263.5489 13.19726006 90218
ONEWEB-0646             
1 55810U 23029Q   25006.87521572  .00000090  00000+0  19338-3 0  9990
2 55810  87.9159  49.6254 0001768 107.1906 252.9420 13.19726575 89474
ONEWEB-0648             
1 55811U 23029R   25007.13848553  .00000995  00000+0  26475-2 0  9995
2 55811  87.8993  34.3089 0001013 127.3818 232.7404 13.14510784 90991
ONEWEB-0649             
1 55812U 23029S   25006.61064604  .00000076  00000+0  15811-3 0  9998
2 55812  87.9159  49.6703 0001427 110.3204 249.8082 13.19726162 89475
ONEWEB-0650             
1 55813U 23029T   25006.83336044  .00000129  00000+0  29053-3 0  9995
2 55813  87.9163  49.6319 0001740 103.4473 256.6854 13.19725895 89478
ONEWEB-0652             
1 55814U 23029U   25006.81499126  .00000180  00000+0  45030-3 0  9995
2 55814  87.8992  34.3839 0001912  90.5697 269.5651 13.14502162 90218
ONEWEB-0653             
1 55815U 23029V   25006.79913175 -.00000160  00000+0 -46706-3 0  9999
2 55815  87.8996  34.3721 0001789  86.6955 273.4379 13.14502188 90240
ONEWEB-0654             
1 55816U 23029W   25006.79437474 -.00000158  00000+0 -45977-3 0  9999
2 55816  87.8991  34.3779 0002055  82.2462 277.8901 13.14504378 90265
